start=new Date('2022-02-12T00:00:00.000Z').valueOf();
sats=[{"CENTER_NAME":"EARTH","SEMIMAJOR_AXIS":"6915.653","TIME_SYSTEM":"UTC","ARG_OF_PERICENTER":"78.9960","INCLINATION":"53.0571","MEAN_MOTION_DDOT":"0.0000000000000","MEAN_MOTION_DOT":"0.00033756","SITE":"AFETR","TLE_LINE2":"2 47737  53.0571 331.6040 0001382  78.9960 281.1186 15.09569133 54032","RA_OF_ASC_NODE":"331.6040","DECAY_DATE":null,"PERIOD":"95.391","ELEMENT_SET_NO":"999","GP_ID":"195758503","MEAN_ELEMENT_THEORY":"SGP4","BSTAR":"0.00208670000000","COUNTRY_CODE":"US","REV_AT_EPOCH":"5403","EPOCH":"2022-02-11T17:45:45.497952","MEAN_ANOMALY":"281.1186","PERIAPSIS":"536.562","ECCENTRICITY":"0.00013820","OBJECT_NAME":"STARLINK-2148","TLE_LINE1":"1 47737U 21017R   22042.74010993  .00033756  00000-0  20867-2 0  9991","LAUNCH_DATE":"2021-03-04","NORAD_CAT_ID":"47737","CLASSIFICATION_TYPE":"U","RCS_SIZE":"LARGE","EPHEMERIS_TYPE":"0","APOAPSIS":"538.473","OBJECT_ID":"2021-017R","OBJECT_TYPE":"PAYLOAD","FILE":"3297845","MEAN_MOTION":"15.09569133","REF_FRAME":"TEME"},{"TIME_SYSTEM":"UTC","ARG_OF_PERICENTER":"222.8003","CENTER_NAME":"EARTH","SEMIMAJOR_AXIS":"6925.348","TLE_LINE2":"2 47738  53.0549  37.0236 0001981 222.8003 137.2832 15.06400254 53117","MEAN_MOTION_DOT":"0.00001337","SITE":"AFETR","MEAN_MOTION_DDOT":"0.0000000000000","INCLINATION":"53.0549","MEAN_ELEMENT_THEORY":"SGP4","ELEMENT_SET_NO":"999","GP_ID":"195758509","RA_OF_ASC_NODE":"37.0236","DECAY_DATE":null,"PERIOD":"95.592","REV_AT_EPOCH":"5311","COUNTRY_CODE":"US","BSTAR":"0.00010866000000","MEAN_ANOMALY":"137.2832","EPOCH":"2022-02-11T16:34:27.615360","PERIAPSIS":"545.841","ECCENTRICITY":"0.00019810","OBJECT_NAME":"STARLINK-2149","EPHEMERIS_TYPE":"0","RCS_SIZE":"LARGE","NORAD_CAT_ID":"47738","CLASSIFICATION_TYPE":"U","LAUNCH_DATE":"2021-03-04","TLE_LINE1":"1 47738U 21017S   22042.69059740  .00001337  00000-0  10866-3 0  9998","OBJECT_ID":"2021-017S","OBJECT_TYPE":"PAYLOAD","FILE":"3297845","APOAPSIS":"548.585","REF_FRAME":"TEME","MEAN_MOTION":"15.06400254"},{"CENTER_NAME":"EARTH","SEMIMAJOR_AXIS":"6925.263","TIME_SYSTEM":"UTC","ARG_OF_PERICENTER":"63.0624","MEAN_MOTION_DDOT":"0.0000000000000","INCLINATION":"53.0546","TLE_LINE2":"2 47739  53.0546  61.8074 0001557  63.0624 297.0524 15.06427865 52774","MEAN_MOTION_DOT":"0.00010883","SITE":"AFETR","RA_OF_ASC_NODE":"61.8074","DECAY_DATE":null,"PERIOD":"95.590","MEAN_ELEMENT_THEORY":"SGP4","ELEMENT_SET_NO":"999","GP_ID":"195761266","BSTAR":"0.00074782000000","COUNTRY_CODE":"US","REV_AT_EPOCH":"5277","EPOCH":"2022-02-11T17:42:48.806496","MEAN_ANOMALY":"297.0524","ECCENTRICITY":"0.00015570","PERIAPSIS":"546.050","OBJECT_NAME":"STARLINK-2150","TLE_LINE1":"1 47739U 21017T   22042.73806489  .00010883  00000-0  74782-3 0  9997","LAUNCH_DATE":"2021-03-04","RCS_SIZE":"LARGE","EPHEMERIS_TYPE":"0","NORAD_CAT_ID":"47739","CLASSIFICATION_TYPE":"U","APOAPSIS":"548.206","OBJECT_TYPE":"PAYLOAD","OBJECT_ID":"2021-017T","FILE":"3297945","MEAN_MOTION":"15.06427865","REF_FRAME":"TEME"},{"NORAD_CAT_ID":"47740","CLASSIFICATION_TYPE":"U","RCS_SIZE":"LARGE","EPHEMERIS_TYPE":"0","LAUNCH_DATE":"2021-03-04","TLE_LINE1":"1 47740U 21017U   22042.52012466  .00003071  00000-0  22492-3 0  9992","EPOCH":"2022-02-11T12:28:58.770624","MEAN_ANOMALY":"297.6959","ECCENTRICITY":"0.00017280","PERIAPSIS":"545.998","OBJECT_NAME":"STARLINK-2152","REF_FRAME":"TEME","MEAN_MOTION":"15.06406029","OBJECT_ID":"2021-017U","OBJECT_TYPE":"PAYLOAD","FILE":"3297860","APOAPSIS":"548.392","MEAN_MOTION_DOT":"0.00003071","SITE":"AFETR","TLE_LINE2":"2 47740  53.0539  47.7884 0001728  62.4205 297.6959 15.06406029 52944","INCLINATION":"53.0539","MEAN_MOTION_DDOT":"0.0000000000000","TIME_SYSTEM":"UTC","ARG_OF_PERICENTER":"62.4205","SEMIMAJOR_AXIS":"6925.330","CENTER_NAME":"EARTH","COUNTRY_CODE":"US","REV_AT_EPOCH":"5294","BSTAR":"0.00022492000000","ELEMENT_SET_NO":"999","GP_ID":"195758524","MEAN_ELEMENT_THEORY":"SGP4","RA_OF_ASC_NODE":"47.7884","PERIOD":"95.592","DECAY_DATE":null},{"EPOCH":"2022-02-11T09:39:07.565760","MEAN_ANOMALY":"294.9492","PERIAPSIS":"545.968","ECCENTRICITY":"0.00017190","OBJECT_NAME":"STARLINK-2154","LAUNCH_DATE":"2021-03-04","TLE_LINE1":"1 47741U 21017V   22042.40217090  .00007895  00000-0  54806-3 0  9992","NORAD_CAT_ID":"47741","CLASSIFICATION_TYPE":"U","RCS_SIZE":"LARGE","EPHEMERIS_TYPE":"0","APOAPSIS":"548.349","OBJECT_TYPE":"PAYLOAD","OBJECT_ID":"2021-017V","FILE":"3297735","MEAN_MOTION":"15.06417909","REF_FRAME":"TEME","CENTER_NAME":"EARTH","SEMIMAJOR_AXIS":"6925.294","TIME_SYSTEM":"UTC","ARG_OF_PERICENTER":"65.1676","INCLINATION":"53.0541","MEAN_MOTION_DDOT":"0.0000000000000","MEAN_MOTION_DOT":"0.00007895","SITE":"AFETR","TLE_LINE2":"2 47741  53.0541  48.3173 0001719  65.1676 294.9492 15.06417909 53568","RA_OF_ASC_NODE":"48.3173","PERIOD":"95.591","DECAY_DATE":null,"ELEMENT_SET_NO":"999","GP_ID":"195753104","MEAN_ELEMENT_THEORY":"SGP4","BSTAR":"0.00054806000000","COUNTRY_CODE":"US","REV_AT_EPOCH":"5356"},{"TLE_LINE2":"2 47742  53.0541  38.2732 0001604  72.6357 287.4807 15.06410797 53756","MEAN_MOTION_DOT":"0.00000042","SITE":"AFETR","MEAN_MOTION_DDOT":"0.0000000000000","INCLINATION":"53.0541","TIME_SYSTEM":"UTC","ARG_OF_PERICENTER":"72.6357","CENTER_NAME":"EARTH","SEMIMAJOR_AXIS":"6925.315","REV_AT_EPOCH":"5375","COUNTRY_CODE":"US","BSTAR":"0.00002172600000","MEAN_ELEMENT_THEORY":"SGP4","ELEMENT_SET_NO":"999","GP_ID":"195753355","RA_OF_ASC_NODE":"38.2732","DECAY_DATE":null,"PERIOD":"95.591","RCS_SIZE":"LARGE","EPHEMERIS_TYPE":"0","NORAD_CAT_ID":"47742","CLASSIFICATION_TYPE":"U","LAUNCH_DATE":"2021-03-04","TLE_LINE1":"1 47742U 21017W   22042.41415341  .00000042  00000-0  21726-4 0  9996","MEAN_ANOMALY":"287.4807","EPOCH":"2022-02-11T09:56:22.854624","ECCENTRICITY":"0.00016040","PERIAPSIS":"546.070","OBJECT_NAME":"STARLINK-2156","REF_FRAME":"TEME","MEAN_MOTION":"15.06410797","OBJECT_ID":"2021-017W","OBJECT_TYPE":"PAYLOAD","FILE":"3297735","APOAPSIS":"548.291"},{"RA_OF_ASC_NODE":"37.8421","DECAY_DATE":null,"PERIOD":"95.591","ELEMENT_SET_NO":"999","GP_ID":"195752103","MEAN_ELEMENT_THEORY":"SGP4","BSTAR":"0.00101930000000","REV_AT_EPOCH":"5374","COUNTRY_CODE":"US","SEMIMAJOR_AXIS":"6925.291","CENTER_NAME":"EARTH","TIME_SYSTEM":"UTC","ARG_OF_PERICENTER":"67.8703","INCLINATION":"53.0553","MEAN_MOTION_DDOT":"0.0000000000000","MEAN_MOTION_DOT":"0.00014941","SITE":"AFETR","TLE_LINE2":"2 47743  53.0553  37.8421 0001872  67.8703 292.2484 15.06418940 53740","APOAPSIS":"548.452","OBJECT_TYPE":"PAYLOAD","OBJECT_ID":"2021-017X","FILE":"3297735","MEAN_MOTION":"15.06418940","REF_FRAME":"TEME","MEAN_ANOMALY":"292.2484","EPOCH":"2022-02-11T12:09:04.499712","PERIAPSIS":"545.859","OBJECT_NAME":"STARLINK-2157","ECCENTRICITY":"0.00018720","TLE_LINE1":"1 47743U 21017X   22042.50630208  .00014941  00000-0  10193-2 0  9995","LAUNCH_DATE":"2021-03-04","NORAD_CAT_ID":"47743","CLASSIFICATION_TYPE":"U","RCS_SIZE":"LARGE","EPHEMERIS_TYPE":"0"},{"REF_FRAME":"TEME","MEAN_MOTION":"15.06404322","FILE":"3297735","OBJECT_TYPE":"PAYLOAD","OBJECT_ID":"2021-017Y","APOAPSIS":"548.453","RCS_SIZE":"LARGE","EPHEMERIS_TYPE":"0","CLASSIFICATION_TYPE":"U","NORAD_CAT_ID":"47744","TLE_LINE1":"1 47744U 21017Y   22042.48418556  .00001616  00000-0  12736-3 0  9994","LAUNCH_DATE":"2021-03-04","ECCENTRICITY":"0.00018090","PERIAPSIS":"545.948","OBJECT_NAME":"STARLINK-2158","MEAN_ANOMALY":"296.6814","EPOCH":"2022-02-11T11:37:13.632384","COUNTRY_CODE":"US","REV_AT_EPOCH":"5376","BSTAR":"0.00012736000000","MEAN_ELEMENT_THEORY":"SGP4","GP_ID":"195752353","ELEMENT_SET_NO":"999","DECAY_DATE":null,"PERIOD":"95.592","RA_OF_ASC_NODE":"37.9539","TLE_LINE2":"2 47744  53.0552  37.9539 0001809  63.4360 296.6814 15.06404322 53768","SITE":"AFETR","MEAN_MOTION_DOT":"0.00001616","MEAN_MOTION_DDOT":"0.0000000000000","INCLINATION":"53.0552","ARG_OF_PERICENTER":"63.4360","TIME_SYSTEM":"UTC","CENTER_NAME":"EARTH","SEMIMAJOR_AXIS":"6925.335"},{"APOAPSIS":"548.369","FILE":"3297986","OBJECT_ID":"2021-017Z","OBJECT_TYPE":"PAYLOAD","MEAN_MOTION":"15.06410787","REF_FRAME":"TEME","PERIAPSIS":"545.992","OBJECT_NAME":"STARLINK-2159","ECCENTRICITY":"0.00017160","MEAN_ANOMALY":"292.3301","EPOCH":"2022-02-11T18:40:31.550016","TLE_LINE1":"1 47745U 21017Z   22042.77814294  .00000446  00000-0  48829-4 0  9999","LAUNCH_DATE":"2021-03-04","CLASSIFICATION_TYPE":"U","NORAD_CAT_ID":"47745","RCS_SIZE":"LARGE","EPHEMERIS_TYPE":"0","PERIOD":"95.591","DECAY_DATE":null,"RA_OF_ASC_NODE":"46.6380","GP_ID":"195762016","ELEMENT_SET_NO":"999","MEAN_ELEMENT_THEORY":"SGP4","BSTAR":"0.00004882900000","REV_AT_EPOCH":"5298","COUNTRY_CODE":"US","SEMIMAJOR_AXIS":"6925.315","CENTER_NAME":"EARTH","ARG_OF_PERICENTER":"67.7870","TIME_SYSTEM":"UTC","INCLINATION":"53.0548","MEAN_MOTION_DDOT":"0.0000000000000","SITE":"AFETR","MEAN_MOTION_DOT":"0.00000446","TLE_LINE2":"2 47745  53.0548  46.6380 0001716  67.7870 292.3301 15.06410787 52984"},{"ELEMENT_SET_NO":"999","GP_ID":"195753856","MEAN_ELEMENT_THEORY":"SGP4","RA_OF_ASC_NODE":"47.8403","PERIOD":"95.592","DECAY_DATE":null,"REV_AT_EPOCH":"5356","COUNTRY_CODE":"US","BSTAR":"0.00096891000000","TIME_SYSTEM":"UTC","ARG_OF_PERICENTER":"59.2351","SEMIMAJOR_AXIS":"6925.339","CENTER_NAME":"EARTH","MEAN_MOTION_DOT":"0.00014181","SITE":"AFETR","TLE_LINE2":"2 47746  53.0553  47.8403 0001680  59.2351 300.8804 15.06403007 53565","INCLINATION":"53.0553","MEAN_MOTION_DDOT":"0.0000000000000","OBJECT_TYPE":"PAYLOAD","OBJECT_ID":"2021-017AA","FILE":"3297735","APOAPSIS":"548.368","REF_FRAME":"TEME","MEAN_MOTION":"15.06403007","MEAN_ANOMALY":"300.8804","EPOCH":"2022-02-11T12:07:43.931712","PERIAPSIS":"546.041","OBJECT_NAME":"STARLINK-2160","ECCENTRICITY":"0.00016800","NORAD_CAT_ID":"47746","CLASSIFICATION_TYPE":"U","RCS_SIZE":"LARGE","EPHEMERIS_TYPE":"0","TLE_LINE1":"1 47746U 21017AA  22042.50536958  .00014181  00000-0  96891-3 0  9991","LAUNCH_DATE":"2021-03-04"}];
